{
  "type": "FeatureCollection",
  "features": [
    {
      "type": "Feature",
      "properties": {
        "norad_id": 31655,
        "name": "FENGYUN 1C DEB",
        "group": "fengyun-1c-debris",
        "lat": 13.533251746040863,
        "lon": 109.69982224852932,
        "alt_km": 815.248019516649,
        "timestamp": "2025-12-07T07:31:36.581661+00:00",
        "meta_object_name": "FENGYUN 1C DEB",
        "meta_object_id": "1999-025CBM",
        "meta_epoch": "2025-12-05T15:06:01.661760",
        "meta_mean_motion": 13.6380404,
        "meta_eccentricity": 0.02884805,
        "meta_inclination": 99.2858,
        "meta_ra_of_asc_node": 285.8328,
        "meta_arg_of_pericenter": 156.518,
        "meta_mean_anomaly": 23.125,
        "meta_ephemeris_type": 0,
        "meta_classification_type": "U",
        "meta_norad_cat_id": 31655,
        "meta_element_set_no": 999,
        "meta_rev_at_epoch": 59622,
        "meta_bstar": 0.0043059807,
        "meta_mean_motion_dot": 4.489e-05,
        "meta_mean_motion_ddot": 0,
        "tle_line1": "1 31655U 99025CBM 25339.62918590  .00004489  00000+0  43060-2 0  9996",
        "tle_line2": "2 31655  99.2858 285.8328 0288480 156.5180  23.1250 13.63804040596221"
      },
      "geometry": {
        "type": "Point",
        "coordinates": [
          109.69982224852932,
          13.533251746040863
        ]
      }
    },
    {
      "type": "Feature",
      "properties": {
        "norad_id": 31656,
        "name": "FENGYUN 1C DEB",
        "group": "fengyun-1c-debris",
        "lat": 68.14877866599265,
        "lon": 173.46542206264365,
        "alt_km": 717.2343790215709,
        "timestamp": "2025-12-07T07:31:36.581674+00:00",
        "meta_object_name": "FENGYUN 1C DEB",
        "meta_object_id": "1999-025CBN",
        "meta_epoch": "2025-12-06T22:59:00.633408",
        "meta_mean_motion": 14.4687185,
        "meta_eccentricity": 0.00228412,
        "meta_inclination": 99.1953,
        "meta_ra_of_asc_node": 329.2541,
        "meta_arg_of_pericenter": 68.1642,
        "meta_mean_anomaly": 348.4143,
        "meta_ephemeris_type": 0,
        "meta_classification_type": "U",
        "meta_norad_cat_id": 31656,
        "meta_element_set_no": 999,
        "meta_rev_at_epoch": 96372,
        "meta_bstar": 0.0035421363,
        "meta_mean_motion_dot": 0.00012863,
        "meta_mean_motion_ddot": 0,
        "tle_line1": "1 31656U 99025CBN 25340.95764622  .00012863  00000+0  35421-2 0  9997",
        "tle_line2": "2 31656  99.1953 329.2541 0022841  68.1642 348.4143 14.46871850963727"
      },
      "geometry": {
        "type": "Point",
        "coordinates": [
          173.46542206264365,
          68.14877866599265
        ]
      }
    },
    {
      "type": "Feature",
      "properties": {
        "norad_id": 31657,
        "name": "FENGYUN 1C DEB",
        "group": "fengyun-1c-debris",
        "lat": -33.46183586768295,
        "lon": 55.71388976521817,
        "alt_km": 999.0251264830486,
        "timestamp": "2025-12-07T07:31:36.581684+00:00",
        "meta_object_name": "FENGYUN 1C DEB",
        "meta_object_id": "1999-025CBP",
        "meta_epoch": "2025-12-05T23:34:36.376608",
        "meta_mean_motion": 13.96939719,
        "meta_eccentricity": 0.01456048,
        "meta_inclination": 102.2173,
        "meta_ra_of_asc_node": 242.1836,
        "meta_arg_of_pericenter": 70.2331,
        "meta_mean_anomaly": 291.4456,
        "meta_ephemeris_type": 0,
        "meta_classification_type": "U",
        "meta_norad_cat_id": 31657,
        "meta_element_set_no": 999,
        "meta_rev_at_epoch": 62770,
        "meta_bstar": 0.0049638047,
        "meta_mean_motion_dot": 7.504e-05,
        "meta_mean_motion_ddot": 0,
        "tle_line1": "1 31657U 99025CBP 25339.98236547  .00007504  00000+0  49638-2 0  9990",
        "tle_line2": "2 31657 102.2173 242.1836 0145604  70.2331 291.4456 13.96939719627702"
      },
      "geometry": {
        "type": "Point",
        "coordinates": [
          55.71388976521817,
          -33.46183586768295
        ]
      }
    },
    {
      "type": "Feature",
      "properties": {
        "norad_id": 31658,
        "name": "FENGYUN 1C DEB",
        "group": "fengyun-1c-debris",
        "lat": 60.81946645130716,
        "lon": 25.879517388218236,
        "alt_km": 1011.9613417000346,
        "timestamp": "2025-12-07T07:31:36.581694+00:00",
        "meta_object_name": "FENGYUN 1C DEB",
        "meta_object_id": "1999-025CBQ",
        "meta_epoch": "2025-11-30T13:35:01.131648",
        "meta_mean_motion": 13.98632883,
        "meta_eccentricity": 0.0215722,
        "meta_inclination": 98.1534,
        "meta_ra_of_asc_node": 184.9954,
        "meta_arg_of_pericenter": 356.7033,
        "meta_mean_anomaly": 3.2699,
        "meta_ephemeris_type": 0,
        "meta_classification_type": "U",
        "meta_norad_cat_id": 31658,
        "meta_element_set_no": 999,
        "meta_rev_at_epoch": 69646,
        "meta_bstar": 0.0024889,
        "meta_mean_motion_dot": 4.324e-05,
        "meta_mean_motion_ddot": 0,
        "tle_line1": "1 31658U 99025CBQ 25334.56598532  .00004324  00000+0  24889-2 0  9993",
        "tle_line2": "2 31658  98.1534 184.9954 0215722 356.7033   3.2699 13.98632883696462"
      },
      "geometry": {
        "type": "Point",
        "coordinates": [
          25.879517388218236,
          60.81946645130716
        ]
      }
    },
    {
      "type": "Feature",
      "properties": {
        "norad_id": 31660,
        "name": "FENGYUN 1C DEB",
        "group": "fengyun-1c-debris",
        "lat": 22.55544570128247,
        "lon": 166.36985633580457,
        "alt_km": 744.6296192306645,
        "timestamp": "2025-12-07T07:31:36.581704+00:00",
        "meta_object_name": "FENGYUN 1C DEB",
        "meta_object_id": "1999-025CBS",
        "meta_epoch": "2025-12-04T06:25:52.832640",
        "meta_mean_motion": 14.27084649,
        "meta_eccentricity": 0.0101329,
        "meta_inclination": 98.5047,
        "meta_ra_of_asc_node": 339.8449,
        "meta_arg_of_pericenter": 205.5295,
        "meta_mean_anomaly": 154.0863,
        "meta_ephemeris_type": 0,
        "meta_classification_type": "U",
        "meta_norad_cat_id": 31660,
        "meta_element_set_no": 999,
        "meta_rev_at_epoch": 7795,
        "meta_bstar": 0.0012372,
        "meta_mean_motion_dot": 3.142e-05,
        "meta_mean_motion_ddot": 0,
        "tle_line1": "1 31660U 99025CBS 25338.26797260  .00003142  00000+0  12372-2 0  9997",
        "tle_line2": "2 31660  98.5047 339.8449 0101329 205.5295 154.0863 14.27084649 77955"
      },
      "geometry": {
        "type": "Point",
        "coordinates": [
          166.36985633580457,
          22.55544570128247
        ]
      }
    },
    {
      "type": "Feature",
      "properties": {
        "norad_id": 31661,
        "name": "FENGYUN 1C DEB",
        "group": "fengyun-1c-debris",
        "lat": -71.38768929013915,
        "lon": -147.25598434619872,
        "alt_km": 774.0672298223781,
        "timestamp": "2025-12-07T07:31:36.581714+00:00",
        "meta_object_name": "FENGYUN 1C DEB",
        "meta_object_id": "1999-025CBT",
        "meta_epoch": "2025-12-05T17:52:50.346624",
        "meta_mean_motion": 14.2534715,
        "meta_eccentricity": 0.00580543,
        "meta_inclination": 98.8615,
        "meta_ra_of_asc_node": 58.756,
        "meta_arg_of_pericenter": 243.7577,
        "meta_mean_anomaly": 245.2457,
        "meta_ephemeris_type": 0,
        "meta_classification_type": "U",
        "meta_norad_cat_id": 31661,
        "meta_element_set_no": 999,
        "meta_rev_at_epoch": 95613,
        "meta_bstar": 0.0034324034,
        "meta_mean_motion_dot": 8.194e-05,
        "meta_mean_motion_ddot": 0,
        "tle_line1": "1 31661U 99025CBT 25339.74502716  .00008194  00000+0  34324-2 0  9995",
        "tle_line2": "2 31661  98.8615  58.7560 0058054 243.7577 245.2457 14.25347150956139"
      },
      "geometry": {
        "type": "Point",
        "coordinates": [
          -147.25598434619872,
          -71.38768929013915
        ]
      }
    },
    {
      "type": "Feature",
      "properties": {
        "norad_id": 31663,
        "name": "FENGYUN 1C DEB",
        "group": "fengyun-1c-debris",
        "lat": 7.988877454835355,
        "lon": 69.9208210538721,
        "alt_km": 623.8452568301964,
        "timestamp": "2025-12-07T07:31:36.581726+00:00",
        "meta_object_name": "FENGYUN 1C DEB",
        "meta_object_id": "1999-025CBV",
        "meta_epoch": "2025-12-03T11:38:28.212864",
        "meta_mean_motion": 14.76310711,
        "meta_eccentricity": 0.01897685,
        "meta_inclination": 98.838,
        "meta_ra_of_asc_node": 244.4812,
        "meta_arg_of_pericenter": 266.7407,
        "meta_mean_anomaly": 91.2075,
        "meta_ephemeris_type": 0,
        "meta_classification_type": "U",
        "meta_norad_cat_id": 31663,
        "meta_element_set_no": 999,
        "meta_rev_at_epoch": 99143,
        "meta_bstar": 0.0005527041,
        "meta_mean_motion_dot": 5.081e-05,
        "meta_mean_motion_ddot": 0,
        "tle_line1": "1 31663U 99025CBV 25337.48504876  .00005081  00000+0  55270-3 0  9991",
        "tle_line2": "2 31663  98.8380 244.4812 0189768 266.7407  91.2075 14.76310711991434"
      },
      "geometry": {
        "type": "Point",
        "coordinates": [
          69.9208210538721,
          7.988877454835355
        ]
      }
    }
  ]
}